"","Label","Name","Country","Region","LonDD","LatDD","CalYrBP","Pollen_sum","Pollen_sum.2","Abies"
"1","SKOG","Skogstjern","Norway","Tb",9.638333,59.006944,"--/759.3939/--",868,1370.75,0
"2","SKOG","Skogstjern","Norway","Tb",9.638333,59.006944,"--/1048.687/--",619,881.75,0
"3","SKOG","Skogstjern","Norway","Tb",9.638333,59.006944,"--/1374.141/--",648,910.75,0
"4","SKOG","Skogstjern","Norway","Tb",9.638333,59.006944,"--/1811.583/--",778,1102.25,0
"5","SKOG","Skogstjern","Norway","Tb",9.638333,59.006944,"--/2200.083/--",629,871.25,0
"6","SKOG","Skogstjern","Norway","Tb",9.638333,59.006944,"--/2631/--",659,934,0
"7","SKOG","Skogstjern","Norway","Tb",9.638333,59.006944,"--/3100.333/--",614,901,0
"8","SKOG","Skogstjern","Norway","Tb",9.638333,59.006944,"--/3484.333/--",601,905,0
"9","SKOG","Skogstjern","Norway","Tb",9.638333,59.006944,"--/3953.667/--",597,857.5,0
"10","SKOG","Skogstjern","Norway","Tb",9.638333,59.006944,"--/4167/--",608,909.25,0
"11","SKOG","Skogstjern","Norway","Tb",9.638333,59.006944,"--/4856.224/--",720,1102.5,0
"12","SKOG","Skogstjern","Norway","Tb",9.638333,59.006944,"--/5263.493/--",623,937.25,0
"13","SKOG","Skogstjern","Norway","Tb",9.638333,59.006944,"--/5639.433/--",596,853,0
"14","SKOG","Skogstjern","Norway","Tb",9.638333,59.006944,"--/5858.731/--",624,1006.5,0
"15","SKOG","Skogstjern","Norway","Tb",9.638333,59.006944,"--/6172.015/--",643,1061,0
"16","SKOG","Skogstjern","Norway","Tb",9.638333,59.006944,"--/6446.25/--",615,1117.5,0
"17","SKOG","Skogstjern","Norway","Tb",9.638333,59.006944,"--/6703.75/--",719,1120,0
"18","SKOG","Skogstjern","Norway","Tb",9.638333,59.006944,"--/6918.929/--",603,1009.5,0
"19","SKOG","Skogstjern","Norway","Tb",9.638333,59.006944,"--/7035.357/--",654,1131,0
"20","SKOG","Skogstjern","Norway","Tb",9.638333,59.006944,"--/7373.268/--",852,1198.5,0
"21","SKOG","Skogstjern","Norway","Tb",9.638333,59.006944,"--/7966.482/--",819,1086.75,0
"22","SKOG","Skogstjern","Norway","Tb",9.638333,59.006944,"--/8500.375/--",718,983,0
"23","SKOG","Skogstjern","Norway","Tb",9.638333,59.006944,"--/9282.655/--",826,1061,0
"24","SKOG","Skogstjern","Norway","Tb",9.638333,59.006944,"--/9895.621/--",1044,1374,0
"25","SKOG","Skogstjern","Norway","Tb",9.638333,59.006944,"--/795.5555/--",780,1162,0
"26","SKOG","Skogstjern","Norway","Tb",9.638333,59.006944,"--/1121.01/--",793,1153.75,0
"27","SKOG","Skogstjern","Norway","Tb",9.638333,59.006944,"--/1518.788/--",847,1266.75,0
"28","SKOG","Skogstjern","Norway","Tb",9.638333,59.006944,"--/1897.917/--",669,979,0
"29","SKOG","Skogstjern","Norway","Tb",9.638333,59.006944,"--/2329.583/--",693,1072.5,0
"30","SKOG","Skogstjern","Norway","Tb",9.638333,59.006944,"--/2716.333/--",579,809.5,0
"31","SKOG","Skogstjern","Norway","Tb",9.638333,59.006944,"--/3143/--",600,855.75,0
"32","SKOG","Skogstjern","Norway","Tb",9.638333,59.006944,"--/3569.667/--",567,820.5,0
"33","SKOG","Skogstjern","Norway","Tb",9.638333,59.006944,"--/3868.333/--",602,904.75,0
"34","SKOG","Skogstjern","Norway","Tb",9.638333,59.006944,"--/4605.597/--",631,992.75,0
"35","SKOG","Skogstjern","Norway","Tb",9.638333,59.006944,"--/5169.507/--",677,1056.25,0
"36","SKOG","Skogstjern","Norway","Tb",9.638333,59.006944,"--/5388.806/--",596,895.75,0
"37","SKOG","Skogstjern","Norway","Tb",9.638333,59.006944,"--/5702.089/--",581,897.25,0
"38","SKOG","Skogstjern","Norway","Tb",9.638333,59.006944,"--/6015.373/--",621,978,0
"39","SKOG","Skogstjern","Norway","Tb",9.638333,59.006944,"--/6291.75/--",597,912,0
"40","SKOG","Skogstjern","Norway","Tb",9.638333,59.006944,"--/6549.25/--",672,1098,0
"41","SKOG","Skogstjern","Norway","Tb",9.638333,59.006944,"--/6832.5/--",633,1038.75,0
"42","SKOG","Skogstjern","Norway","Tb",9.638333,59.006944,"--/6965.5/--",594,939.75,0
"43","SKOG","Skogstjern","Norway","Tb",9.638333,59.006944,"--/7165.643/--",704,1171.75,0
"44","SKOG","Skogstjern","Norway","Tb",9.638333,59.006944,"--/7669.875/--",865,1152.5,0
"45","SKOG","Skogstjern","Norway","Tb",9.638333,59.006944,"--/8263.089/--",714,972,0
"46","SKOG","Skogstjern","Norway","Tb",9.638333,59.006944,"--/8822.931/--",759,1004.25,0
"47","SKOG","Skogstjern","Norway","Tb",9.638333,59.006944,"--/9512.518/--",785,1064.5,0
"48","SKOG","Skogstjern","Norway","Tb",9.638333,59.006944,"--/10355.34/--",459.5,700,0
"49","SKOG","Skogstjern","Norway","Tb",9.638333,59.006944,"--/36.16162/--",738,1140,1
"50","SKOG","Skogstjern","Norway","Tb",9.638333,59.006944,"--/940.202/--",725,1021,0
"51","SKOG","Skogstjern","Norway","Tb",9.638333,59.006944,"--/1265.657/--",741,1079.75,0
"52","SKOG","Skogstjern","Norway","Tb",9.638333,59.006944,"--/1446.465/--",734,1095.25,0
"53","SKOG","Skogstjern","Norway","Tb",9.638333,59.006944,"--/1735.758/--",676,967.5,0
"54","SKOG","Skogstjern","Norway","Tb",9.638333,59.006944,"--/2156.917/--",627,863.25,0
"55","SKOG","Skogstjern","Norway","Tb",9.638333,59.006944,"--/2545.417/--",615,870,0
"56","SKOG","Skogstjern","Norway","Tb",9.638333,59.006944,"--/2972.333/--",596,855.25,0
"57","SKOG","Skogstjern","Norway","Tb",9.638333,59.006944,"--/3399/--",732,1075,0
"58","SKOG","Skogstjern","Norway","Tb",9.638333,59.006944,"--/3825.667/--",611,917,0
"59","SKOG","Skogstjern","Norway","Tb",9.638333,59.006944,"--/4292.313/--",642,1030,0
"60","SKOG","Skogstjern","Norway","Tb",9.638333,59.006944,"--/4918.88/--",622,943.25,0
"61","SKOG","Skogstjern","Norway","Tb",9.638333,59.006944,"--/5294.821/--",590,901,0
"62","SKOG","Skogstjern","Norway","Tb",9.638333,59.006944,"--/5576.776/--",618,944.5,0
"63","SKOG","Skogstjern","Norway","Tb",9.638333,59.006944,"--/5827.403/--",659,1029.25,0
"64","SKOG","Skogstjern","Norway","Tb",9.638333,59.006944,"--/6109.358/--",633,995.25,0
"65","SKOG","Skogstjern","Norway","Tb",9.638333,59.006944,"--/6369/--",562,882.5,0
"66","SKOG","Skogstjern","Norway","Tb",9.638333,59.006944,"--/6626.5/--",597.5,999.25,0
"67","SKOG","Skogstjern","Norway","Tb",9.638333,59.006944,"--/6858.25/--",810,1290,0
"68","SKOG","Skogstjern","Norway","Tb",9.638333,59.006944,"--/6988.786/--",671,1051,0
"69","SKOG","Skogstjern","Norway","Tb",9.638333,59.006944,"--/7224.964/--",611,1027.75,0
"70","SKOG","Skogstjern","Norway","Tb",9.638333,59.006944,"--/7788.518/--",814,1064.75,0
"71","SKOG","Skogstjern","Norway","Tb",9.638333,59.006944,"--/8322.411/--",795,1080,0
"72","SKOG","Skogstjern","Norway","Tb",9.638333,59.006944,"--/8976.173/--",715,941.75,0
"73","SKOG","Skogstjern","Norway","Tb",9.638333,59.006944,"--/9742.379/--",898,1258.25,0
"74","SKOG","Skogstjern","Norway","Tb",9.638333,59.006944,"--/10508.59/--",383,571,0
"75","SKOG","Skogstjern","Norway","Tb",9.638333,59.006944,"--/325.4546/--",938,1520.25,0
"76","SKOG","Skogstjern","Norway","Tb",9.638333,59.006944,"--/1084.849/--",757,1089.5,0
"77","SKOG","Skogstjern","Norway","Tb",9.638333,59.006944,"--/1554.949/--",793,1200.75,0
"78","SKOG","Skogstjern","Norway","Tb",9.638333,59.006944,"--/1941.083/--",639,962,0
"79","SKOG","Skogstjern","Norway","Tb",9.638333,59.006944,"--/2372.75/--",615,922.5,0
"80","SKOG","Skogstjern","Norway","Tb",9.638333,59.006944,"--/2801.667/--",648,945.75,0
"81","SKOG","Skogstjern","Norway","Tb",9.638333,59.006944,"--/3228.333/--",558,773.25,0
"82","SKOG","Skogstjern","Norway","Tb",9.638333,59.006944,"--/3612.333/--",615,911.25,0
"83","SKOG","Skogstjern","Norway","Tb",9.638333,59.006944,"--/4039/--",667,1019.75,0
"84","SKOG","Skogstjern","Norway","Tb",9.638333,59.006944,"--/4354.97/--",601,892.25,0
"85","SKOG","Skogstjern","Norway","Tb",9.638333,59.006944,"--/5075.522/--",649,985.25,0
"86","SKOG","Skogstjern","Norway","Tb",9.638333,59.006944,"--/5451.463/--",611,973.25,0
"87","SKOG","Skogstjern","Norway","Tb",9.638333,59.006944,"--/5764.746/--",605,920.5,0
"88","SKOG","Skogstjern","Norway","Tb",9.638333,59.006944,"--/6046.702/--",645,1091.25,0
"89","SKOG","Skogstjern","Norway","Tb",9.638333,59.006944,"--/6394.75/--",604,1034.75,0
"90","SKOG","Skogstjern","Norway","Tb",9.638333,59.006944,"--/6652.25/--",734,1231.75,0
"91","SKOG","Skogstjern","Norway","Tb",9.638333,59.006944,"--/6907.286/--",603,999,0
"92","SKOG","Skogstjern","Norway","Tb",9.638333,59.006944,"--/7023.714/--",590.5,973.25,0
"93","SKOG","Skogstjern","Norway","Tb",9.638333,59.006944,"--/7313.946/--",652,955.25,0
"94","SKOG","Skogstjern","Norway","Tb",9.638333,59.006944,"--/7907.161/--",741,990,0
"95","SKOG","Skogstjern","Norway","Tb",9.638333,59.006944,"--/8559.696/--",762,1038,0
"96","SKOG","Skogstjern","Norway","Tb",9.638333,59.006944,"--/9206.034/--",774,993.75,0
"97","SKOG","Skogstjern","Norway","Tb",9.638333,59.006944,"--/9972.241/--",346,484.25,0
"98","SKOG","Skogstjern","Norway","Tb",9.638333,59.006944,"--/831.7172/--",936,1415.75,0
"99","SKOG","Skogstjern","Norway","Tb",9.638333,59.006944,"--/1229.495/--",807,1137,1
"100","SKOG","Skogstjern","Norway","Tb",9.638333,59.006944,"--/1663.434/--",707,1005.75,0
"101","SKOG","Skogstjern","Norway","Tb",9.638333,59.006944,"--/2070.583/--",563,772,0
"102","SKOG","Skogstjern","Norway","Tb",9.638333,59.006944,"--/2459.083/--",605,882.5,0
"103","SKOG","Skogstjern","Norway","Tb",9.638333,59.006944,"--/2844.333/--",687,1005,0
"104","SKOG","Skogstjern","Norway","Tb",9.638333,59.006944,"--/3271/--",590,852.25,0
"105","SKOG","Skogstjern","Norway","Tb",9.638333,59.006944,"--/3740.333/--",643,922.25,0
"106","SKOG","Skogstjern","Norway","Tb",9.638333,59.006944,"--/4229.657/--",618,887.25,0
"107","SKOG","Skogstjern","Norway","Tb",9.638333,59.006944,"--/4793.567/--",641,976,0
"108","SKOG","Skogstjern","Norway","Tb",9.638333,59.006944,"--/5232.164/--",620,984.25,0
"109","SKOG","Skogstjern","Norway","Tb",9.638333,59.006944,"--/5608.104/--",609,922.5,0
"110","SKOG","Skogstjern","Norway","Tb",9.638333,59.006944,"--/5890.06/--",642,949.5,0
"111","SKOG","Skogstjern","Norway","Tb",9.638333,59.006944,"--/6203.343/--",596,900.25,0
"112","SKOG","Skogstjern","Norway","Tb",9.638333,59.006944,"--/6497.75/--",621,1119.75,0
"113","SKOG","Skogstjern","Norway","Tb",9.638333,59.006944,"--/6755.25/--",856,1490.75,0
"114","SKOG","Skogstjern","Norway","Tb",9.638333,59.006944,"--/6977.143/--",586,866.75,0
"115","SKOG","Skogstjern","Norway","Tb",9.638333,59.006944,"--/7135.982/--",781,1151.75,0
"116","SKOG","Skogstjern","Norway","Tb",9.638333,59.006944,"--/7610.554/--",811,1089.5,0
"117","SKOG","Skogstjern","Norway","Tb",9.638333,59.006944,"--/8203.768/--",644,880.75,0
"118","SKOG","Skogstjern","Norway","Tb",9.638333,59.006944,"--/8899.552/--",703,928.25,0
"119","SKOG","Skogstjern","Norway","Tb",9.638333,59.006944,"--/9665.759/--",1104,1480.5,0
"120","SKOG","Skogstjern","Norway","Tb",9.638333,59.006944,"--/10431.97/--",406,602.75,0
"121","SKOG","Skogstjern","Norway","Tb",9.638333,59.006944,"--/470.101/--",608,862.75,0
"122","SKOG","Skogstjern","Norway","Tb",9.638333,59.006944,"--/1157.172/--",757,1074,0
"123","SKOG","Skogstjern","Norway","Tb",9.638333,59.006944,"--/1482.626/--",756,1131,0
"124","SKOG","Skogstjern","Norway","Tb",9.638333,59.006944,"--/1854.75/--",760,1063.25,0
"125","SKOG","Skogstjern","Norway","Tb",9.638333,59.006944,"--/2286.417/--",668,947.5,0
"126","SKOG","Skogstjern","Norway","Tb",9.638333,59.006944,"--/2759/--",605,854.5,0
"127","SKOG","Skogstjern","Norway","Tb",9.638333,59.006944,"--/3185.667/--",591,799.75,0
"128","SKOG","Skogstjern","Norway","Tb",9.638333,59.006944,"--/3655/--",650,940.75,0
"129","SKOG","Skogstjern","Norway","Tb",9.638333,59.006944,"--/3996.333/--",614,873.5,0
"130","SKOG","Skogstjern","Norway","Tb",9.638333,59.006944,"--/4542.94/--",640,967.5,0
"131","SKOG","Skogstjern","Norway","Tb",9.638333,59.006944,"--/4981.537/--",694,1075.25,0
"132","SKOG","Skogstjern","Norway","Tb",9.638333,59.006944,"--/5326.149/--",565,907.25,0
"133","SKOG","Skogstjern","Norway","Tb",9.638333,59.006944,"--/5545.448/--",600,932.25,0
"134","SKOG","Skogstjern","Norway","Tb",9.638333,59.006944,"--/5952.716/--",630,1032,0
"135","SKOG","Skogstjern","Norway","Tb",9.638333,59.006944,"--/6234.672/--",585,930,0
"136","SKOG","Skogstjern","Norway","Tb",9.638333,59.006944,"--/6472/--",640,1136,0
"137","SKOG","Skogstjern","Norway","Tb",9.638333,59.006944,"--/6729.5/--",611,1003,0
"138","SKOG","Skogstjern","Norway","Tb",9.638333,59.006944,"--/6942.214/--",633,1020.75,0
"139","SKOG","Skogstjern","Norway","Tb",9.638333,59.006944,"--/7076.661/--",647,1053.25,0
"140","SKOG","Skogstjern","Norway","Tb",9.638333,59.006944,"--/7491.911/--",770,1035.25,0
"141","SKOG","Skogstjern","Norway","Tb",9.638333,59.006944,"--/8025.804/--",674,904,0
"142","SKOG","Skogstjern","Norway","Tb",9.638333,59.006944,"--/8619.018/--",764,1041.25,0
"143","SKOG","Skogstjern","Norway","Tb",9.638333,59.006944,"--/9359.275/--",697,910.25,0
"144","SKOG","Skogstjern","Norway","Tb",9.638333,59.006944,"--/10125.48/--",517,813.5,0
"145","SKOG","Skogstjern","Norway","Tb",9.638333,59.006944,"--/614.7475/--",619,894.25,0
"146","SKOG","Skogstjern","Norway","Tb",9.638333,59.006944,"--/976.3636/--",737,1070.75,0
"147","SKOG","Skogstjern","Norway","Tb",9.638333,59.006944,"--/1337.98/--",691,997.5,0
"148","SKOG","Skogstjern","Norway","Tb",9.638333,59.006944,"--/1771.919/--",761,1110,0
"149","SKOG","Skogstjern","Norway","Tb",9.638333,59.006944,"--/2243.25/--",630,893.25,0
"150","SKOG","Skogstjern","Norway","Tb",9.638333,59.006944,"--/2673.667/--",583,822.5,0
"151","SKOG","Skogstjern","Norway","Tb",9.638333,59.006944,"--/3057.667/--",609,880.5,0
"152","SKOG","Skogstjern","Norway","Tb",9.638333,59.006944,"--/3527/--",596,882.5,0
"153","SKOG","Skogstjern","Norway","Tb",9.638333,59.006944,"--/3911/--",615,873,0
"154","SKOG","Skogstjern","Norway","Tb",9.638333,59.006944,"--/4417.627/--",578,873.25,0
"155","SKOG","Skogstjern","Norway","Tb",9.638333,59.006944,"--/5044.194/--",675,996.25,0
"156","SKOG","Skogstjern","Norway","Tb",9.638333,59.006944,"--/5420.134/--",592,906.75,0
"157","SKOG","Skogstjern","Norway","Tb",9.638333,59.006944,"--/5733.418/--",589,858.5,0
"158","SKOG","Skogstjern","Norway","Tb",9.638333,59.006944,"--/6078.03/--",645,1155.75,0
"159","SKOG","Skogstjern","Norway","Tb",9.638333,59.006944,"--/6343.25/--",566,919,0
"160","SKOG","Skogstjern","Norway","Tb",9.638333,59.006944,"--/6600.75/--",595,1045.25,0
"161","SKOG","Skogstjern","Norway","Tb",9.638333,59.006944,"--/6884/--",631,1103.75,0
"162","SKOG","Skogstjern","Norway","Tb",9.638333,59.006944,"--/7012.071/--",573,1014.75,0
"163","SKOG","Skogstjern","Norway","Tb",9.638333,59.006944,"--/7254.625/--",675,1047.75,0
"164","SKOG","Skogstjern","Norway","Tb",9.638333,59.006944,"--/7847.839/--",788,1060,0
"165","SKOG","Skogstjern","Norway","Tb",9.638333,59.006944,"--/8441.054/--",758,1026.25,0
"166","SKOG","Skogstjern","Norway","Tb",9.638333,59.006944,"--/9129.414/--",751,998.75,0
"167","SKOG","Skogstjern","Norway","Tb",9.638333,59.006944,"--/10048.86/--",591,968.25,0
"168","SKOG","Skogstjern","Norway","Tb",9.638333,59.006944,"--/904.0404/--",747,1062,1
"169","SKOG","Skogstjern","Norway","Tb",9.638333,59.006944,"--/1193.333/--",815,1208.5,0
"170","SKOG","Skogstjern","Norway","Tb",9.638333,59.006944,"--/1627.273/--",738,1055.75,0
"171","SKOG","Skogstjern","Norway","Tb",9.638333,59.006944,"--/1984.25/--",616,868.25,0
"172","SKOG","Skogstjern","Norway","Tb",9.638333,59.006944,"--/2415.917/--",626,914.75,0
"173","SKOG","Skogstjern","Norway","Tb",9.638333,59.006944,"--/2887/--",616,862.5,0
"174","SKOG","Skogstjern","Norway","Tb",9.638333,59.006944,"--/3313.667/--",676,1019.5,0
"175","SKOG","Skogstjern","Norway","Tb",9.638333,59.006944,"--/3697.667/--",621,913.75,0
"176","SKOG","Skogstjern","Norway","Tb",9.638333,59.006944,"--/4124.333/--",605,907,0
"177","SKOG","Skogstjern","Norway","Tb",9.638333,59.006944,"--/4730.911/--",641,979.75,0
"178","SKOG","Skogstjern","Norway","Tb",9.638333,59.006944,"--/5138.179/--",612,987,0
"179","SKOG","Skogstjern","Norway","Tb",9.638333,59.006944,"--/5357.478/--",581,903.5,0
"180","SKOG","Skogstjern","Norway","Tb",9.638333,59.006944,"--/5670.761/--",620,986.5,0
"181","SKOG","Skogstjern","Norway","Tb",9.638333,59.006944,"--/5921.388/--",641,1021,0
"182","SKOG","Skogstjern","Norway","Tb",9.638333,59.006944,"--/6266/--",611,1031.5,0
"183","SKOG","Skogstjern","Norway","Tb",9.638333,59.006944,"--/6523.5/--",622.5,1023.75,0
"184","SKOG","Skogstjern","Norway","Tb",9.638333,59.006944,"--/6781/--",585,951.75,0
"185","SKOG","Skogstjern","Norway","Tb",9.638333,59.006944,"--/6953.857/--",590.5,1001,0
"186","SKOG","Skogstjern","Norway","Tb",9.638333,59.006944,"--/7106.321/--",677,1039.75,0
"187","SKOG","Skogstjern","Norway","Tb",9.638333,59.006944,"--/7551.232/--",820,1101.5,0
"188","SKOG","Skogstjern","Norway","Tb",9.638333,59.006944,"--/8085.125/--",755.5,1083.5,0
"189","SKOG","Skogstjern","Norway","Tb",9.638333,59.006944,"--/8746.311/--",749,1003.75,0
"190","SKOG","Skogstjern","Norway","Tb",9.638333,59.006944,"--/9435.896/--",707,940,0
"191","SKOG","Skogstjern","Norway","Tb",9.638333,59.006944,"--/10202.1/--",544,872,0
"192","SKOG","Skogstjern","Norway","Tb",9.638333,59.006944,"--/180.8081/--",929,1537.75,1
"193","SKOG","Skogstjern","Norway","Tb",9.638333,59.006944,"--/1012.525/--",681,928,0
"194","SKOG","Skogstjern","Norway","Tb",9.638333,59.006944,"--/1410.303/--",646,904.5,0
"195","SKOG","Skogstjern","Norway","Tb",9.638333,59.006944,"--/1699.596/--",705,1003.5,0
"196","SKOG","Skogstjern","Norway","Tb",9.638333,59.006944,"--/2113.75/--",608,818.5,0
"197","SKOG","Skogstjern","Norway","Tb",9.638333,59.006944,"--/2588.333/--",634,954,0
"198","SKOG","Skogstjern","Norway","Tb",9.638333,59.006944,"--/3015/--",642,914.5,0
"199","SKOG","Skogstjern","Norway","Tb",9.638333,59.006944,"--/3441.667/--",575,831.25,0
"200","SKOG","Skogstjern","Norway","Tb",9.638333,59.006944,"--/4081.667/--",699,1120,0
"201","SKOG","Skogstjern","Norway","Tb",9.638333,59.006944,"--/4668.254/--",632,947.75,0
"202","SKOG","Skogstjern","Norway","Tb",9.638333,59.006944,"--/5200.836/--",616,1003.25,0
"203","SKOG","Skogstjern","Norway","Tb",9.638333,59.006944,"--/5514.12/--",615,977.5,0
"204","SKOG","Skogstjern","Norway","Tb",9.638333,59.006944,"--/5984.045/--",608,998.5,0
"205","SKOG","Skogstjern","Norway","Tb",9.638333,59.006944,"--/6317.5/--",605,933.25,0
"206","SKOG","Skogstjern","Norway","Tb",9.638333,59.006944,"--/6575/--",607,974.75,0
"207","SKOG","Skogstjern","Norway","Tb",9.638333,59.006944,"--/6806.75/--",582,1059,0
"208","SKOG","Skogstjern","Norway","Tb",9.638333,59.006944,"--/6930.571/--",601,951.5,0
"209","SKOG","Skogstjern","Norway","Tb",9.638333,59.006944,"--/7047/--",634,1104.5,0
"210","SKOG","Skogstjern","Norway","Tb",9.638333,59.006944,"--/7432.589/--",793,1106.75,0
"211","SKOG","Skogstjern","Norway","Tb",9.638333,59.006944,"--/8144.446/--",700,940.25,0
"212","SKOG","Skogstjern","Norway","Tb",9.638333,59.006944,"--/8678.339/--",788,1072.75,0
"213","SKOG","Skogstjern","Norway","Tb",9.638333,59.006944,"--/9589.138/--",931,1235,0
"214","SKOG","Skogstjern","Norway","Tb",9.638333,59.006944,"--/10278.72/--",432,635.25,0
"215","SKOG","Skogstjern","Norway","Tb",9.638333,59.006944,"--/867.8788/--",791,1127.5,1
"216","SKOG","Skogstjern","Norway","Tb",9.638333,59.006944,"--/1301.818/--",769,1099.25,1
"217","SKOG","Skogstjern","Norway","Tb",9.638333,59.006944,"--/1591.111/--",809,1181.75,0
"218","SKOG","Skogstjern","Norway","Tb",9.638333,59.006944,"--/2027.417/--",615,879.75,0
"219","SKOG","Skogstjern","Norway","Tb",9.638333,59.006944,"--/2502.25/--",679,998.25,0
"220","SKOG","Skogstjern","Norway","Tb",9.638333,59.006944,"--/2929.667/--",647,898.75,0
"221","SKOG","Skogstjern","Norway","Tb",9.638333,59.006944,"--/3356.333/--",663,1006.5,0
"222","SKOG","Skogstjern","Norway","Tb",9.638333,59.006944,"--/3783/--",600,915.5,0
"223","SKOG","Skogstjern","Norway","Tb",9.638333,59.006944,"--/4480.284/--",597,882.75,0
"224","SKOG","Skogstjern","Norway","Tb",9.638333,59.006944,"--/5106.851/--",602,889,0
"225","SKOG","Skogstjern","Norway","Tb",9.638333,59.006944,"--/5482.791/--",598,881.25,0
"226","SKOG","Skogstjern","Norway","Tb",9.638333,59.006944,"--/5796.075/--",634,944,0
"227","SKOG","Skogstjern","Norway","Tb",9.638333,59.006944,"--/6140.687/--",652,1035.5,0
"228","SKOG","Skogstjern","Norway","Tb",9.638333,59.006944,"--/6420.5/--",609,1059.75,0
"229","SKOG","Skogstjern","Norway","Tb",9.638333,59.006944,"--/6678/--",635,999.25,0
"230","SKOG","Skogstjern","Norway","Tb",9.638333,59.006944,"--/6895.643/--",652,1155.5,0
"231","SKOG","Skogstjern","Norway","Tb",9.638333,59.006944,"--/7000.429/--",620,1004.5,0
"232","SKOG","Skogstjern","Norway","Tb",9.638333,59.006944,"--/7195.304/--",773,1306,0
"233","SKOG","Skogstjern","Norway","Tb",9.638333,59.006944,"--/7729.196/--",908,1191.25,0
"234","SKOG","Skogstjern","Norway","Tb",9.638333,59.006944,"--/8381.732/--",728,979.75,0
"235","SKOG","Skogstjern","Norway","Tb",9.638333,59.006944,"--/9052.793/--",694,909.5,0
"236","SKOG","Skogstjern","Norway","Tb",9.638333,59.006944,"--/9819/--",1030,1356.5,0
